STARLINK-2209           
1 47776U 21017BG  26049.84878965  .00008565  00000+0  30143-3 0  9995
2 47776  53.1631 291.3441 0001308 123.4485 236.6641 15.30151448274985
STARLINK-2211           
1 47778U 21017BJ  26049.83027030  .00000996  00000+0  44696-4 0  9994
2 47778  53.1589 292.1788 0001217 101.2038 258.9100 15.31025409274962
STARLINK-2213           
1 47780U 21017BL  26049.84560910 -.00003444  00000+0 -10426-3 0  9993
2 47780  53.1591 291.3720 0001200  86.7555 273.3583 15.30186614275016
STARLINK-2257           
1 47787U 21018A   26049.19692185  .00000877  00000+0  41722-4 0  9998
2 47787  53.1613 335.8802 0001315  90.6048 269.5103 15.30202659273708
STARLINK-2314           
1 47788U 21018B   26049.86689117  .00009072  00000+0  31816-3 0  9992
2 47788  53.1580 307.1708 0000916  75.8588 284.2514 15.30187663274189
STARLINK-2315           
1 47789U 21018C   26049.12293115  .00000408  00000+0  46275-4 0  9991
2 47789  53.0544 319.4537 0001373  86.1494 273.9652 15.06402310273936
STARLINK-2319           
1 47790U 21018D   26049.23359994  .00064792  00000+0  22365-2 0  9991
2 47790  53.1562 307.0321 0001378  92.3366 267.7792 15.29379600274123
STARLINK-2322           
1 47791U 21018E   26049.20794178  .00011273  00000+0  39209-3 0  9998
2 47791  53.1603 333.4338 0001267  99.3068 260.8076 15.30206375273751
STARLINK-2334           
1 47792U 21018F   26049.13029975 -.00000438  00000+0 -10498-4 0  9990
2 47792  53.0547 319.4235 0001485 114.4599 245.6545 15.06397786273930
STARLINK-2338           
1 47793U 21018G   26049.87486482  .00001060  00000+0  90040-4 0  9993
2 47793  53.0564 316.0724 0001608 111.1798 248.9362 15.06411196274035
STARLINK-2373           
1 47796U 21018K   26049.01973047  .00002973  00000+0  21838-3 0  9992
2 47796  53.0539 319.9223 0001546  84.6948 275.4218 15.06403192273916
STARLINK-2377           
1 47797U 21018L   26049.18882534 -.00000594  00000+0 -20961-4 0  9997
2 47797  53.0533 344.1602 0001449  81.1504 278.9649 15.06387880273588
STARLINK-2379           
1 47798U 21018M   26049.16347478 -.00001806  00000+0 -10235-3 0  9998
2 47798  53.0552 319.2738 0001426 100.0811 260.0339 15.06409988273931
STARLINK-2380           
1 47799U 21018N   26049.15978918 -.00003196  00000+0 -19575-3 0  9997
2 47799  53.0531 319.2935 0001077  71.6507 288.4599 15.06407240273925
STARLINK-2381           
1 47800U 21018P   26048.98286779  .00000603  00000+0  59382-4 0  9996
2 47800  53.0541 320.0869 0001320  84.0586 276.0553 15.06397952273900
STARLINK-2383           
1 47802U 21018R   26049.19620280 -.00000402  00000+0 -81258-5 0  9998
2 47802  53.0545 344.1309 0001342  74.8536 285.2602 15.06386244273592
