[{"OBJECT_NAME":"STARLINK-2209","OBJECT_ID":"2021-017BG","EPOCH":"2026-02-18T20:22:15.425760","MEAN_MOTION":15.30151448,"ECCENTRICITY":0.0001308,"INCLINATION":53.1631,"RA_OF_ASC_NODE":291.3441,"ARG_OF_PERICENTER":123.4485,"MEAN_ANOMALY":236.6641,"EPHEMERIS_TYPE":0,"CLASSIFICATION_TYPE":"U","NORAD_CAT_ID":47776,"ELEMENT_SET_NO":999,"REV_AT_EPOCH":27498,"BSTAR":0.00030143,"MEAN_MOTION_DOT":8.565e-5,"MEAN_MOTION_DDOT":0},{"OBJECT_NAME":"STARLINK-2211","OBJECT_ID":"2021-017BJ","EPOCH":"2026-02-18T19:55:35.353920","MEAN_MOTION":15.31025409,"ECCENTRICITY":0.0001217,"INCLINATION":53.1589,"RA_OF_ASC_NODE":292.1788,"ARG_OF_PERICENTER":101.2038,"MEAN_ANOMALY":258.91,"EPHEMERIS_TYPE":0,"CLASSIFICATION_TYPE":"U","NORAD_CAT_ID":47778,"ELEMENT_SET_NO":999,"REV_AT_EPOCH":27496,"BSTAR":4.4696e-5,"MEAN_MOTION_DOT":9.96e-6,"MEAN_MOTION_DDOT":0},{"OBJECT_NAME":"STARLINK-2213","OBJECT_ID":"2021-017BL","EPOCH":"2026-02-18T20:17:40.626240","MEAN_MOTION":15.30186614,"ECCENTRICITY":0.00012,"INCLINATION":53.1591,"RA_OF_ASC_NODE":291.372,"ARG_OF_PERICENTER":86.7555,"MEAN_ANOMALY":273.3583,"EPHEMERIS_TYPE":0,"CLASSIFICATION_TYPE":"U","NORAD_CAT_ID":47780,"ELEMENT_SET_NO":999,"REV_AT_EPOCH":27501,"BSTAR":-0.00010426,"MEAN_MOTION_DOT":-3.444e-5,"MEAN_MOTION_DDOT":0},{"OBJECT_NAME":"STARLINK-2257","OBJECT_ID":"2021-018A","EPOCH":"2026-02-18T04:43:34.047840","MEAN_MOTION":15.30202659,"ECCENTRICITY":0.0001315,"INCLINATION":53.1613,"RA_OF_ASC_NODE":335.8802,"ARG_OF_PERICENTER":90.6048,"MEAN_ANOMALY":269.5103,"EPHEMERIS_TYPE":0,"CLASSIFICATION_TYPE":"U","NORAD_CAT_ID":47787,"ELEMENT_SET_NO":999,"REV_AT_EPOCH":27370,"BSTAR":4.1722e-5,"MEAN_MOTION_DOT":8.77e-6,"MEAN_MOTION_DDOT":0},{"OBJECT_NAME":"STARLINK-2314","OBJECT_ID":"2021-018B","EPOCH":"2026-02-18T20:48:19.397088","MEAN_MOTION":15.30187663,"ECCENTRICITY":9.16e-5,"INCLINATION":53.158,"RA_OF_ASC_NODE":307.1708,"ARG_OF_PERICENTER":75.8588,"MEAN_ANOMALY":284.2514,"EPHEMERIS_TYPE":0,"CLASSIFICATION_TYPE":"U","NORAD_CAT_ID":47788,"ELEMENT_SET_NO":999,"REV_AT_EPOCH":27418,"BSTAR":0.00031816,"MEAN_MOTION_DOT":9.072e-5,"MEAN_MOTION_DDOT":0},{"OBJECT_NAME":"STARLINK-2315","OBJECT_ID":"2021-018C","EPOCH":"2026-02-18T02:57:01.251360","MEAN_MOTION":15.0640231,"ECCENTRICITY":0.00013735,"INCLINATION":53.0544,"RA_OF_ASC_NODE":319.4537,"ARG_OF_PERICENTER":86.1494,"MEAN_ANOMALY":273.9652,"EPHEMERIS_TYPE":0,"CLASSIFICATION_TYPE":"U","NORAD_CAT_ID":47789,"ELEMENT_SET_NO":999,"REV_AT_EPOCH":27393,"BSTAR":4.6274598e-5,"MEAN_MOTION_DOT":4.08e-6,"MEAN_MOTION_DDOT":0},{"OBJECT_NAME":"STARLINK-2319","OBJECT_ID":"2021-018D","EPOCH":"2026-02-18T05:36:23.034816","MEAN_MOTION":15.293796,"ECCENTRICITY":0.0001378,"INCLINATION":53.1562,"RA_OF_ASC_NODE":307.0321,"ARG_OF_PERICENTER":92.3366,"MEAN_ANOMALY":267.7792,"EPHEMERIS_TYPE":0,"CLASSIFICATION_TYPE":"U","NORAD_CAT_ID":47790,"ELEMENT_SET_NO":999,"REV_AT_EPOCH":27412,"BSTAR":0.0022365,"MEAN_MOTION_DOT":0.00064792,"MEAN_MOTION_DDOT":0},{"OBJECT_NAME":"STARLINK-2322","OBJECT_ID":"2021-018E","EPOCH":"2026-02-18T04:59:26.169792","MEAN_MOTION":15.30206375,"ECCENTRICITY":0.0001267,"INCLINATION":53.1603,"RA_OF_ASC_NODE":333.4338,"ARG_OF_PERICENTER":99.3068,"MEAN_ANOMALY":260.8076,"EPHEMERIS_TYPE":0,"CLASSIFICATION_TYPE":"U","NORAD_CAT_ID":47791,"ELEMENT_SET_NO":999,"REV_AT_EPOCH":27375,"BSTAR":0.00039209,"MEAN_MOTION_DOT":0.00011273,"MEAN_MOTION_DDOT":0},{"OBJECT_NAME":"STARLINK-2334","OBJECT_ID":"2021-018F","EPOCH":"2026-02-18T03:07:37.898400","MEAN_MOTION":15.06397786,"ECCENTRICITY":0.00014854,"INCLINATION":53.0547,"RA_OF_ASC_NODE":319.4235,"ARG_OF_PERICENTER":114.4599,"MEAN_ANOMALY":245.6545,"EPHEMERIS_TYPE":0,"CLASSIFICATION_TYPE":"U","NORAD_CAT_ID":47792,"ELEMENT_SET_NO":999,"REV_AT_EPOCH":27393,"BSTAR":-1.0497537e-5,"MEAN_MOTION_DOT":-4.38e-6,"MEAN_MOTION_DDOT":0},{"OBJECT_NAME":"STARLINK-2338","OBJECT_ID":"2021-018G","EPOCH":"2026-02-18T20:59:48.320448","MEAN_MOTION":15.06411196,"ECCENTRICITY":0.0001608,"INCLINATION":53.0564,"RA_OF_ASC_NODE":316.0724,"ARG_OF_PERICENTER":111.1798,"MEAN_ANOMALY":248.9362,"EPHEMERIS_TYPE":0,"CLASSIFICATION_TYPE":"U","NORAD_CAT_ID":47793,"ELEMENT_SET_NO":999,"REV_AT_EPOCH":27403,"BSTAR":9.004e-5,"MEAN_MOTION_DOT":1.06e-5,"MEAN_MOTION_DDOT":0},{"OBJECT_NAME":"STARLINK-2373","OBJECT_ID":"2021-018K","EPOCH":"2026-02-18T00:28:24.712608","MEAN_MOTION":15.06403192,"ECCENTRICITY":0.00015468,"INCLINATION":53.0539,"RA_OF_ASC_NODE":319.9223,"ARG_OF_PERICENTER":84.6948,"MEAN_ANOMALY":275.4218,"EPHEMERIS_TYPE":0,"CLASSIFICATION_TYPE":"U","NORAD_CAT_ID":47796,"ELEMENT_SET_NO":999,"REV_AT_EPOCH":27391,"BSTAR":0.00021837808,"MEAN_MOTION_DOT":2.973e-5,"MEAN_MOTION_DDOT":0},{"OBJECT_NAME":"STARLINK-2377","OBJECT_ID":"2021-018L","EPOCH":"2026-02-18T04:31:54.509376","MEAN_MOTION":15.0638788,"ECCENTRICITY":0.0001449,"INCLINATION":53.0533,"RA_OF_ASC_NODE":344.1602,"ARG_OF_PERICENTER":81.1504,"MEAN_ANOMALY":278.9649,"EPHEMERIS_TYPE":0,"CLASSIFICATION_TYPE":"U","NORAD_CAT_ID":47797,"ELEMENT_SET_NO":999,"REV_AT_EPOCH":27358,"BSTAR":-2.0961e-5,"MEAN_MOTION_DOT":-5.94e-6,"MEAN_MOTION_DDOT":0},{"OBJECT_NAME":"STARLINK-2379","OBJECT_ID":"2021-018M","EPOCH":"2026-02-18T03:55:24.220992","MEAN_MOTION":15.06409988,"ECCENTRICITY":0.00014261,"INCLINATION":53.0552,"RA_OF_ASC_NODE":319.2738,"ARG_OF_PERICENTER":100.0811,"MEAN_ANOMALY":260.0339,"EPHEMERIS_TYPE":0,"CLASSIFICATION_TYPE":"U","NORAD_CAT_ID":47798,"ELEMENT_SET_NO":999,"REV_AT_EPOCH":27393,"BSTAR":-0.0001023451,"MEAN_MOTION_DOT":-1.806e-5,"MEAN_MOTION_DDOT":0},{"OBJECT_NAME":"STARLINK-2380","OBJECT_ID":"2021-018N","EPOCH":"2026-02-18T03:50:05.785152","MEAN_MOTION":15.0640724,"ECCENTRICITY":0.0001077,"INCLINATION":53.0531,"RA_OF_ASC_NODE":319.2935,"ARG_OF_PERICENTER":71.6507,"MEAN_ANOMALY":288.4599,"EPHEMERIS_TYPE":0,"CLASSIFICATION_TYPE":"U","NORAD_CAT_ID":47799,"ELEMENT_SET_NO":999,"REV_AT_EPOCH":27392,"BSTAR":-0.00019574919,"MEAN_MOTION_DOT":-3.196e-5,"MEAN_MOTION_DDOT":0},{"OBJECT_NAME":"STARLINK-2381","OBJECT_ID":"2021-018P","EPOCH":"2026-02-17T23:35:19.777056","MEAN_MOTION":15.06397952,"ECCENTRICITY":0.000132,"INCLINATION":53.0541,"RA_OF_ASC_NODE":320.0869,"ARG_OF_PERICENTER":84.0586,"MEAN_ANOMALY":276.0553,"EPHEMERIS_TYPE":0,"CLASSIFICATION_TYPE":"U","NORAD_CAT_ID":47800,"ELEMENT_SET_NO":999,"REV_AT_EPOCH":27390,"BSTAR":5.9382e-5,"MEAN_MOTION_DOT":6.03e-6,"MEAN_MOTION_DDOT":0},{"OBJECT_NAME":"STARLINK-2383","OBJECT_ID":"2021-018R","EPOCH":"2026-02-18T04:42:31.921920","MEAN_MOTION":15.06386244,"ECCENTRICITY":0.0001342,"INCLINATION":53.0545,"RA_OF_ASC_NODE":344.1309,"ARG_OF_PERICENTER":74.8536,"MEAN_ANOMALY":285.2602,"EPHEMERIS_TYPE":0,"CLASSIFICATION_TYPE":"U","NORAD_CAT_ID":47802,"ELEMENT_SET_NO":999,"REV_AT_EPOCH":27359,"BSTAR":-8.1258e-6,"MEAN_MOTION_DOT":-4.02e-6,"MEAN_MOTION_DDOT":0}]
